[{"OBJECT_NAME":"STARLINK-31064","OBJECT_ID":"2023-203P","EPOCH":"2026-03-09T01:51:56.804256","MEAN_MOTION":15.27563758,"ECCENTRICITY":0.00015041,"INCLINATION":43.0091,"RA_OF_ASC_NODE":74.3436,"ARG_OF_PERICENTER":279.6227,"MEAN_ANOMALY":80.4455,"EPHEMERIS_TYPE":0,"CLASSIFICATION_TYPE":"U","NORAD_CAT_ID":58631,"ELEMENT_SET_NO":999,"REV_AT_EPOCH":12459,"BSTAR":-6.1589938e-5,"MEAN_MOTION_DOT":-1.956e-5,"MEAN_MOTION_DDOT":0},{"OBJECT_NAME":"OBJECT N","OBJECT_ID":"2019-093N","EPOCH":"2026-03-09T21:41:56.087232","MEAN_MOTION":15.29897693,"ECCENTRICITY":0.0006278,"INCLINATION":98.0505,"RA_OF_ASC_NODE":226.9456,"ARG_OF_PERICENTER":33.3806,"MEAN_ANOMALY":326.7828,"EPHEMERIS_TYPE":0,"CLASSIFICATION_TYPE":"U","NORAD_CAT_ID":44891,"ELEMENT_SET_NO":999,"REV_AT_EPOCH":33957,"BSTAR":0.0010567776,"MEAN_MOTION_DOT":0.00030617,"MEAN_MOTION_DDOT":0}]
